OBJECT_NAME,OBJECT_ID,EPOCH,MEAN_MOTION,ECCENTRICITY,INCLINATION,RA_OF_ASC_NODE,ARG_OF_PERICENTER,MEAN_ANOMALY,EPHEMERIS_TYPE,CLASSIFICATION_TYPE,NORAD_CAT_ID,ELEMENT_SET_NO,REV_AT_EPOCH,BSTAR,MEAN_MOTION_DOT,MEAN_MOTION_DDOT
SL-16 R/B,1996-051B,2026-07-13T15:49:36.396192,14.12455868,.001769,70.7647,268.6270,300.0718,59.8647,0,U,24298,999,53943,.10896E-3,.152E-5,0
ORBVIEW 2 (SEASTAR),1997-037A,2026-07-13T10:27:37.630944,14.35566309,.00031284,98.8711,2.1855,64.3180,295.8327,0,U,24883,999,52651,.53034954E-4,.106E-5,0
SL-16 R/B,1998-043G,2026-07-13T21:13:21.847296,14.26072577,.0010109,98.8379,149.2753,15.1301,345.0179,0,U,25400,999,45697,.16809E-4,-.5E-7,0
SL-16 R/B,1998-045B,2026-07-13T15:39:28.896192,14.16205842,.0008274,71.0113,276.6730,208.8713,151.1954,0,U,25407,999,44493,-.95685E-4,-.237E-5,0
ISS (ZARYA),1998-067A,2026-07-13T18:23:41.212608,15.49001429,.0006711,51.6307,168.5527,292.2587,67.7689,0,U,25544,999,57587,.80956E-4,.4013E-4,0
CZ-4B R/B,1999-025C,2026-07-13T17:51:10.801728,14.18287543,.0036704,98.6473,235.9123,343.9659,125.2695,0,U,25732,999,40603,.32929E-4,.25E-6,0
OKEAN-O,1999-039A,2026-07-13T16:57:08.894016,14.80496300,.0000914,97.9303,253.1979,84.3191,275.8126,0,U,25860,999,45303,.41518E-4,.266E-5,0
SL-16 R/B,1999-039B,2026-07-13T16:53:04.655040,14.81869851,.0014208,97.9824,253.4891,203.4081,156.6486,0,U,25861,999,45552,.34462E-4,.219E-5,0
DELTA 2 R/B,1999-041E,2026-07-13T08:44:52.233216,14.12079685,.0501344,51.7612,159.2119,359.3520,0.6709,0,U,25876,999,38078,.2511E-3,.1324E-4,0
HELIOS 1B,1999-064A,2026-07-13T17:45:16.646400,14.88073188,.0002029,98.1587,100.6458,55.5418,304.5989,0,U,25977,999,70400,.79614E-4,.673E-5,0
TERRA,1999-068A,2026-07-13T19:24:16.216128,14.61123087,.0003358,97.9442,243.2973,125.4907,12.2474,0,U,25994,999,41349,.49959E-4,.201E-5,0
SL-16 R/B,2000-006B,2026-07-13T10:01:42.142368,14.15838417,.00171245,71.0002,193.4702,342.4252,17.6277,0,U,26070,999,36635,-.77538859E-4,-.201E-5,0
TITAN 4B R/B,2000-047B,2026-07-13T19:35:03.722784,15.10329216,.0045866,67.9873,45.6105,260.1265,99.4705,0,U,26474,999,41195,.84194E-4,.1275E-4,0
ENVISAT,2002-009A,2026-07-13T21:06:33.882048,14.39070590,.0001336,98.3846,145.6047,83.8152,340.0934,0,U,27386,999,27732,.20032E-4,.19E-6,0
IDEFIX & ARIANE 42P R/B,2002-021B,2026-07-13T20:06:28.687392,14.31093401,.0011809,98.5942,132.0327,170.4140,189.7270,0,U,27422,999,26206,.49181E-4,.86E-6,0
AQUA,2002-022A,2026-07-13T21:03:40.453056,14.62195986,.0000893,98.4294,164.6969,110.6156,301.1558,0,U,27424,999,28717,.84721E-4,.377E-5,0
CZ-4B R/B,2002-024C,2026-07-13T18:35:16.864800,14.14568086,.0050543,98.8687,247.4201,25.9980,83.3526,0,U,27432,999,24706,.29035E-4,.12E-6,0
MIDORI II (ADEOS-II),2002-056A,2026-07-13T21:05:05.914752,14.29362687,.0001536,98.7894,154.3676,42.3946,317.7354,0,U,27597,999,22832,.56057E-4,.97E-6,0
H-2A R/B,2002-056E,2026-07-13T21:04:26.370336,14.33833472,.007082,98.3328,150.5818,144.8127,274.0126,0,U,27601,999,23219,.54701E-4,.115E-5,0
CZ-4B R/B,2003-049C,2026-07-13T20:13:33.439296,14.55115560,.0047556,98.6909,194.7518,205.4283,154.4572,0,U,28059,999,20494,.44519E-4,.143E-5,0
CZ-2C R/B,2004-012C,2026-07-13T19:01:40.308096,15.84906336,.0011351,97.7060,273.6681,195.1677,164.9254,0,U,28222,999,22410,.42783E-3,.100627E-2,0
SL-16 R/B,2004-021B,2026-07-13T19:40:21.101088,14.14616296,.0006353,71.0027,327.7949,226.3027,133.7570,0,U,28353,999,14067,.32851E-4,.16E-6,0
CZ-4B R/B,2004-035C,2026-07-13T14:33:05.116608,15.30978169,.0029143,97.3359,227.3865,238.5782,121.2609,0,U,28415,999,19916,.1426E-3,.4243E-4,0
CZ-2C R/B,2004-046B,2026-07-13T18:22:51.191328,14.27032836,.0140041,98.1918,101.8823,141.6011,219.5240,0,U,28480,999,12648,.33267E-4,.5E-6,0
ARIANE 5 R/B,2004-049H,2026-07-13T11:13:29.966016,14.85477864,.00827129,98.2739,7.7397,303.9645,55.3727,0,U,28499,999,16446,.37475672E-4,.277E-5,0
CZ-2D R/B,2005-024B,2026-07-13T12:35:42.282816,15.72595265,.0002126,97.3468,215.3252,195.3260,164.7939,0,U,28738,999,15947,.32871E-3,.43986E-3,0
ALOS (DAICHI),2006-002A,2026-07-13T20:09:24.714432,14.70100301,.0000815,98.1336,150.3269,96.7741,263.3557,0,U,28931,999,9201,.88602E-4,.483E-5,0
H-2A R/B,2006-002B,2026-07-13T21:05:17.562336,15.18432189,.0050737,98.2585,353.1330,170.4751,189.7455,0,U,28932,999,11357,.22895E-3,.479E-4,0
RESURS-DK 1,2006-021A,2026-07-13T14:35:27.225600,15.13315847,.0007014,69.9309,271.1556,272.7171,87.3192,0,U,29228,999,10657,.59601E-4,.955E-5,0
CZ-4B R/B,2006-046C,2026-07-13T16:30:54.545184,15.17974028,.0032436,97.5441,239.2139,187.3368,172.7395,0,U,29507,999,7915,.11966E-3,.2392E-4,0
CZ-2C R/B,2007-010B,2026-07-13T19:55:39.213408,14.20281576,.0057791,98.4118,301.8808,287.8184,71.6694,0,U,31114,999,99762,.314E-4,.27E-6,0
