SL-16 R/B               
1 24298U 96051B   26194.65944903  .00000152  00000+0  10896-3 0  9992
2 24298  70.7647 268.6270 0017690 300.0718  59.8647 14.12455868539438
ORBVIEW 2 (SEASTAR)     
1 24883U 97037A   26194.43585221  .00000106  00000+0  53035-4 0  9999
2 24883  98.8711   2.1855 0003128  64.3180 295.8327 14.35566309526515
SL-16 R/B               
1 25400U 98043G   26194.88428064 -.00000005  00000+0  16809-4 0  9990
2 25400  98.8379 149.2753 0010109  15.1301 345.0179 14.26072577456971
SL-16 R/B               
1 25407U 98045B   26194.65241778 -.00000237  00000+0 -95685-4 0  9996
2 25407  71.0113 276.6730 0008274 208.8713 151.1954 14.16205842444937
ISS (ZARYA)             
1 25544U 98067A   26194.76644922  .00004013  00000+0  80956-4 0  9991
2 25544  51.6307 168.5527 0006711 292.2587  67.7689 15.49001429575878
CZ-4B R/B               
1 25732U 99025C   26194.74387502  .00000025  00000+0  32929-4 0  9997
2 25732  98.6473 235.9123 0036704 343.9659 125.2695 14.18287543406038
OKEAN-O                 
1 25860U 99039A   26194.70635294  .00000266  00000+0  41518-4 0  9995
2 25860  97.9303 253.1979 0000914  84.3191 275.8126 14.80496300453031
SL-16 R/B               
1 25861U 99039B   26194.70352610  .00000219  00000+0  34462-4 0  9992
2 25861  97.9824 253.4891 0014208 203.4081 156.6486 14.81869851455526
DELTA 2 R/B             
1 25876U 99041E   26194.36449344  .00001324  00000+0  25110-3 0  9991
2 25876  51.7612 159.2119 0501344 359.3520   0.6709 14.12079685380785
HELIOS 1B               
1 25977U 99064A   26194.73977600  .00000673  00000+0  79614-4 0  9995
2 25977  98.1587 100.6458 0002029  55.5418 304.5989 14.88073188704002
TERRA                   
1 25994U 99068A   26194.80852102  .00000201  00000+0  49959-4 0  9991
2 25994  97.9442 243.2973 0003358 125.4907  12.2474 14.61123087413497
SL-16 R/B               
1 26070U 00006B   26194.41784887 -.00000201  00000+0 -77539-4 0  9999
2 26070  71.0002 193.4702 0017124 342.4252  17.6277 14.15838417366355
TITAN 4B R/B            
1 26474U 00047B   26194.81601531  .00001275  00000+0  84194-4 0  9995
2 26474  67.9873  45.6105 0045866 260.1265  99.4705 15.10329216411951
ENVISAT                 
1 27386U 02009A   26194.87955882  .00000019  00000+0  20032-4 0  9991
2 27386  98.3846 145.6047 0001336  83.8152 340.0934 14.39070590277325
IDEFIX & ARIANE 42P R/B 
1 27422U 02021B   26194.83783203  .00000086  00000+0  49181-4 0  9998
2 27422  98.5942 132.0327 0011809 170.4140 189.7270 14.31093401262066
AQUA                    
1 27424U 02022A   26194.87755154  .00000377  00000+0  84721-4 0  9991
2 27424  98.4294 164.6969 0000893 110.6156 301.1558 14.62195986287177
CZ-4B R/B               
1 27432U 02024C   26194.77450075  .00000012  00000+0  29035-4 0  9998
2 27432  98.8687 247.4201 0050543  25.9980  83.3526 14.14568086247065
MIDORI II (ADEOS-II)    
1 27597U 02056A   26194.87854068  .00000097  00000+0  56057-4 0  9993
2 27597  98.7894 154.3676 0001536  42.3946 317.7354 14.29362687228327
H-2A R/B                
1 27601U 02056E   26194.87808299  .00000115  00000+0  54701-4 0  9999
2 27601  98.3328 150.5818 0070820 144.8127 274.0126 14.33833472232190
CZ-4B R/B               
1 28059U 03049C   26194.84274814  .00000143  00000+0  44519-4 0  9994
2 28059  98.6909 194.7518 0047556 205.4283 154.4572 14.55115560204943
CZ-2C R/B               
1 28222U 04012C   26194.79282764  .00100627  00000+0  42783-3 0  9992
2 28222  97.7060 273.6681 0011351 195.1677 164.9254 15.84906336224102
SL-16 R/B               
1 28353U 04021B   26194.81968867  .00000016  00000+0  32851-4 0  9992
2 28353  71.0027 327.7949 0006353 226.3027 133.7570 14.14616296140674
CZ-4B R/B               
1 28415U 04035C   26194.60630922  .00004243  00000+0  14260-3 0  9990
2 28415  97.3359 227.3865 0029143 238.5782 121.2609 15.30978169199161
CZ-2C R/B               
1 28480U 04046B   26194.76587027  .00000050  00000+0  33267-4 0  9999
2 28480  98.1918 101.8823 0140041 141.6011 219.5240 14.27032836126487
ARIANE 5 R/B            
1 28499U 04049H   26194.46770794  .00000277  00000+0  37476-4 0  9991
2 28499  98.2739   7.7397 0082712 303.9645  55.3727 14.85477864164469
CZ-2D R/B               
1 28738U 05024B   26194.52479494  .00043986  00000+0  32871-3 0  9998
2 28738  97.3468 215.3252 0002126 195.3260 164.7939 15.72595265159476
ALOS (DAICHI)           
1 28931U 06002A   26194.83986938  .00000483  00000+0  88602-4 0  9999
2 28931  98.1336 150.3269 0000815  96.7741 263.3557 14.70100301 92019
H-2A R/B                
1 28932U 06002B   26194.87867549  .00004790  00000+0  22895-3 0  9996
2 28932  98.2585 353.1330 0050737 170.4751 189.7455 15.18432189113576
RESURS-DK 1             
1 29228U 06021A   26194.60795400  .00000955  00000+0  59601-4 0  9998
2 29228  69.9309 271.1556 0007014 272.7171  87.3192 15.13315847106574
CZ-4B R/B               
1 29507U 06046C   26194.68813131  .00002392  00000+0  11966-3 0  9993
2 29507  97.5441 239.2139 0032436 187.3368 172.7395 15.17974028 79158
CZ-2C R/B               
1 31114U 07010B   26194.83031497  .00000027  00000+0  31400-4 0  9995
2 31114  98.4118 301.8808 0057791 287.8184  71.6694 14.20281576997620
